COMMENT,ORIGINATOR,NORAD_CAT_ID,OBJECT_NAME,OBJECT_TYPE,CLASSIFICATION_TYPE,INTLDES,EPOCH,EPOCH_MICROSECONDS,MEAN_MOTION,ECCENTRICITY,INCLINATION,RA_OF_ASC_NODE,ARG_OF_PERICENTER,MEAN_ANOMALY,EPHEMERIS_TYPE,ELEMENT_SET_NO,REV_AT_EPOCH,BSTAR,MEAN_MOTION_DOT,MEAN_MOTION_DDOT,FILE,TLE_LINE0,TLE_LINE1,TLE_LINE2,OBJECT_ID,OBJECT_NUMBER,SEMIMAJOR_AXIS,PERIOD,APOGEE,PERIGEE,DECAYED
GENERATED VIA SPACETRACK.ORG API,18 SPCS,44336,ARIANE 5 DEB (SYLDA),DEBRIS,U,19034D,2024-09-19 10:20:56,545728,4.22157732,0.5924646,5.8569,102.8697,75.6416,340.3535,0,999,5418,0.013559,0.00311998,0,4499110,0 ARIANE 5 DEB (SYLDA),1 44336U 19034D   24263.43121002  .00311998  00000-0  13559-1 0  9992,2 44336   5.8569 102.8697 5924646  75.6416 340.3535  4.22157732 54187,2019-034D,44336,16171.563,341.105,19374.507,212.35,0
GENERATED VIA SPACETRACK.ORG API,18 SPCS,44336,ARIANE 5 DEB (SYLDA),DEBRIS,U,19034D,2024-09-19 10:20:56,545728,4.22157732,0.5924646,5.8569,102.8697,75.6416,340.3535,0,999,5420,0.013559,0.00311998,0,4499371,0 ARIANE 5 DEB (SYLDA),1 44336U 19034D   24263.43121002  .00311998  00000-0  13559-1 0  9992,2 44336   5.8569 102.8697 5924646  75.6416 340.3535  4.22157732 54200,2019-034D,44336,16171.563,341.105,19374.507,212.35,0
GENERATED VIA SPACETRACK.ORG API,18 SPCS,44336,ARIANE 5 DEB (SYLDA),DEBRIS,U,19034D,2024-09-19 21:42:33,171840,4.22479261,0.5922589,5.857,102.4299,76.5069,339.9921,0,999,5420,0.01497,0.003451,0,4499689,0 ARIANE 5 DEB (SYLDA),1 44336U 19034D   24263.90455060  .00345100  00000-0  14970-1 0  9998,2 44336   5.8570 102.4299 5922589  76.5069 339.9921  4.22479261 54201,2019-034D,44336,16163.357,340.845,19358.115,212.33,0
GENERATED VIA SPACETRACK.ORG API,18 SPCS,44336,ARIANE 5 DEB (SYLDA),DEBRIS,U,19034D,2024-09-20 09:03:39,160512,4.2277903,0.5920567,5.8573,101.9906,77.3738,339.6237,0,999,5422,0.013704,0.00315063,0,4499864,0 ARIANE 5 DEB (SYLDA),1 44336U 19034D   24264.37753658  .00315063  00000-0  13704-1 0  9993,2 44336   5.8573 101.9906 5920567  77.3738 339.6237  4.22779030 54225,2019-034D,44336,16155.716,340.603,19342.681,212.481,0
GENERATED VIA SPACETRACK.ORG API,18 SPCS,44336,ARIANE 5 DEB (SYLDA),DEBRIS,U,19034D,2024-09-20 14:44:01,678848,4.22922043,0.5919564,5.8574,101.7761,77.8016,339.4393,0,999,5425,0.013528,0.00310116,0,4500145,0 ARIANE 5 DEB (SYLDA),1 44336U 19034D   24264.61390832  .00310116  00000-0  13528-1 0  9999,2 44336   5.8574 101.7761 5919564  77.8016 339.4393  4.22922043 54250,2019-034D,44336,16152.074,340.488,19335.262,212.615,0
GENERATED VIA SPACETRACK.ORG API,18 SPCS,44336,ARIANE 5 DEB (SYLDA),DEBRIS,U,19034D,2024-09-20 20:24:17,381952,4.23056642,0.5918657,5.8575,101.5534,78.2376,339.2503,0,999,5424,0.013102,0.00299995,0,4500208,0 ARIANE 5 DEB (SYLDA),1 44336U 19034D   24264.85020118  .00299995  00000-0  13102-1 0  9991,2 44336   5.8575 101.5534 5918657  78.2376 339.2503  4.23056642 54247,2019-034D,44336,16148.648,340.38,19328.344,212.682,0
GENERATED VIA SPACETRACK.ORG API,18 SPCS,44336,ARIANE 5 DEB (SYLDA),DEBRIS,U,19034D,2024-09-20 20:24:17,381952,4.23056642,0.5918657,5.8575,101.5534,78.2376,339.2503,0,999,5426,0.013102,0.00299995,0,4500424,0 ARIANE 5 DEB (SYLDA),1 44336U 19034D   24264.85020118  .00299995  00000-0  13102-1 0  9991,2 44336   5.8575 101.5534 5918657  78.2376 339.2503  4.23056642 54269,2019-034D,44336,16148.648,340.38,19328.344,212.682,0
GENERATED VIA SPACETRACK.ORG API,18 SPCS,44336,ARIANE 5 DEB (SYLDA),DEBRIS,U,19034D,2024-09-21 13:24:23,446080,4.23478047,0.5915886,5.858,100.8999,79.5311,338.6787,0,999,5429,0.013233,0.00302728,0,4501119,0 ARIANE 5 DEB (SYLDA),1 44336U 19034D   24265.55860470  .00302728  00000-0  13233-1 0  9996,2 44336   5.8580 100.8999 5915886  79.5311 338.6787  4.23478047 54293,2019-034D,44336,16137.933,340.041,19306.815,212.781,0
GENERATED VIA SPACETRACK.ORG API,18 SPCS,44336,ARIANE 5 DEB (SYLDA),DEBRIS,U,19034D,2024-09-21 13:24:23,446080,4.23478047,0.5915886,5.858,100.8999,79.5311,338.6787,0,999,5427,0.013233,0.00302728,0,4501243,0 ARIANE 5 DEB (SYLDA),1 44336U 19034D   24265.55860470  .00302728  00000-0  13233-1 0  9996,2 44336   5.8580 100.8999 5915886  79.5311 338.6787  4.23478047 54271,2019-034D,44336,16137.933,340.041,19306.815,212.781,0
GENERATED VIA SPACETRACK.ORG API,18 SPCS,44336,ARIANE 5 DEB (SYLDA),DEBRIS,U,19034D,2024-09-22 00:43:54,414624,4.23739152,0.5914281,5.8586,100.4547,80.4028,338.287,0,999,5429,0.01267,0.00291038,0,4501535,0 ARIANE 5 DEB (SYLDA),1 44336U 19034D   24266.03049091  .00291038  00000-0  12670-1 0  9993,2 44336   5.8586 100.4547 5914281  80.4028 338.2870  4.23739152 54294,2019-034D,44336,16131.303,339.832,19293.674,212.662,0
GENERATED VIA SPACETRACK.ORG API,18 SPCS,44336,ARIANE 5 DEB (SYLDA),DEBRIS,U,19034D,2024-09-22 12:02:58,173216,4.24022268,0.5912464,5.8591,100.0161,81.2682,337.8897,0,999,5433,0.012865,0.00295871,0,4502159,0 ARIANE 5 DEB (SYLDA),1 44336U 19034D   24266.50206219  .00295871  00000-0  12865-1 0  9997,2 44336   5.8591 100.0161 5912464  81.2682 337.8897  4.24022268 54337,2019-034D,44336,16124.122,339.605,19279.315,212.658,0
GENERATED VIA SPACETRACK.ORG API,18 SPCS,44336,ARIANE 5 DEB (SYLDA),DEBRIS,U,19034D,2024-09-22 12:02:58,173216,4.24022268,0.5912464,5.8591,100.0161,81.2682,337.8897,0,999,5431,0.012865,0.00295871,0,4502214,0 ARIANE 5 DEB (SYLDA),1 44336U 19034D   24266.50206219  .00295871  00000-0  12865-1 0  9997,2 44336   5.8591 100.0161 5912464  81.2682 337.8897  4.24022268 54315,2019-034D,44336,16124.122,339.605,19279.315,212.658,0
GENERATED VIA SPACETRACK.ORG API,18 SPCS,44336,ARIANE 5 DEB (SYLDA),DEBRIS,U,19034D,2024-09-23 10:39:45,156960,4.24579019,0.5908934,5.86,99.1459,82.9915,337.0799,0,999,5435,0.013048,0.003013,0,4502772,0 ARIANE 5 DEB (SYLDA),1 44336U 19034D   24267.44427265  .00301300  00000-0  13048-1 0  9996,2 44336   5.8600  99.1459 5908934  82.9915 337.0799  4.24579019 54356,2019-034D,44336,16110.023,339.159,19251.194,212.582,0
GENERATED VIA SPACETRACK.ORG API,18 SPCS,44336,ARIANE 5 DEB (SYLDA),DEBRIS,U,19034D,2024-09-23 21:57:27,273600,4.24871977,0.5906941,5.861,98.7106,83.8533,336.6637,0,999,5439,0.014072,0.0032379,0,4503348,0 ARIANE 5 DEB (SYLDA),1 44336U 19034D   24267.91489900  .00323790  00000-0  14072-1 0  9997,2 44336   5.8610  98.7106 5906941  83.8533 336.6637  4.24871977 54391,2019-034D,44336,16102.616,338.926,19236.202,212.761,0
GENERATED VIA SPACETRACK.ORG API,18 SPCS,44336,ARIANE 5 DEB (SYLDA),DEBRIS,U,19034D,2024-09-23 21:57:27,273600,4.24871977,0.5906941,5.861,98.7106,83.8533,336.6637,0,999,5437,0.014072,0.0032379,0,4503483,0 ARIANE 5 DEB (SYLDA),1 44336U 19034D   24267.91489900  .00323790  00000-0  14072-1 0  9997,2 44336   5.8610  98.7106 5906941  83.8533 336.6637  4.24871977 54379,2019-034D,44336,16102.616,338.926,19236.202,212.761,0
GENERATED VIA SPACETRACK.ORG API,18 SPCS,44336,ARIANE 5 DEB (SYLDA),DEBRIS,U,19034D,2024-09-24 20:31:25,819680,4.25463688,0.5903412,5.8618,97.8385,85.5773,335.8159,0,999,5441,0.013696,0.00319405,0,4504506,0 ARIANE 5 DEB (SYLDA),1 44336U 19034D   24268.85515995  .00319405  00000-0  13696-1 0  9994,2 44336   5.8618  97.8385 5903412  85.5773 335.8159  4.25463688 54413,2019-034D,44336,16087.683,338.454,19206.771,212.326,0
GENERATED VIA SPACETRACK.ORG API,18 SPCS,44336,ARIANE 5 DEB (SYLDA),DEBRIS,U,19034D,2024-09-25 13:25:37,804512,4.25930139,0.5900335,5.8621,97.187,86.871,335.1599,0,999,5444,0.014324,0.0033346,0,4504820,0 ARIANE 5 DEB (SYLDA),1 44336U 19034D   24269.55946533  .00333460  00000-0  14324-1 0  9994,2 44336   5.8621  97.1870 5900335  86.8710 335.1599  4.25930139 54449,2019-034D,44336,16075.936,338.084,19183.141,212.46,0
GENERATED VIA SPACETRACK.ORG API,18 SPCS,44336,ARIANE 5 DEB (SYLDA),DEBRIS,U,19034D,2024-09-26 11:56:07,832832,4.26563081,0.5896473,5.8627,96.311,88.6023,334.2602,0,999,5448,0.013861,0.00326118,0,4506336,0 ARIANE 5 DEB (SYLDA),1 44336U 19034D   24270.49731288  .00326118  00000-0  13861-1 0  9995,2 44336   5.8627  96.3110 5896473  88.6023 334.2602  4.26563081 54485,2019-034D,44336,16060.029,337.582,19151.647,212.141,0
GENERATED VIA SPACETRACK.ORG API,18 SPCS,44336,ARIANE 5 DEB (SYLDA),DEBRIS,U,19034D,2024-09-26 11:56:07,832832,4.26563081,0.5896473,5.8627,96.311,88.6023,334.2602,0,999,5450,0.013861,0.00326118,0,4506475,0 ARIANE 5 DEB (SYLDA),1 44336U 19034D   24270.49731288  .00326118  00000-0  13861-1 0  9995,2 44336   5.8627  96.3110 5896473  88.6023 334.2602  4.26563081 54508,2019-034D,44336,16060.029,337.582,19151.647,212.141,0
GENERATED VIA SPACETRACK.ORG API,18 SPCS,44336,ARIANE 5 DEB (SYLDA),DEBRIS,U,19034D,2024-09-27 10:24:37,878336,4.27176492,0.5892582,5.8637,95.4362,90.3321,333.3323,0,999,5452,0.014291,0.00337595,0,4506899,0 ARIANE 5 DEB (SYLDA),1 44336U 19034D   24271.43377174  .00337595  00000-0  14291-1 0  9999,2 44336   5.8637  95.4362 5892582  90.3321 333.3323  4.27176492 54525,2019-034D,44336,16044.651,337.097,19120.958,212.074,0
GENERATED VIA SPACETRACK.ORG API,18 SPCS,44336,ARIANE 5 DEB (SYLDA),DEBRIS,U,19034D,2024-09-27 10:24:37,878336,4.27176492,0.5892582,5.8637,95.4362,90.3321,333.3323,0,999,5454,0.014291,0.00337595,0,4507270,0 ARIANE 5 DEB (SYLDA),1 44336U 19034D   24271.43377174  .00337595  00000-0  14291-1 0  9999,2 44336   5.8637  95.4362 5892582  90.3321 333.3323  4.27176492 54547,2019-034D,44336,16044.651,337.097,19120.958,212.074,0
GENERATED VIA SPACETRACK.ORG API,18 SPCS,44336,ARIANE 5 DEB (SYLDA),DEBRIS,U,19034D,2024-09-28 03:14:41,363808,4.27659897,0.5889587,5.8643,94.7776,91.6313,332.6138,0,999,5455,0.014064,0.0033427,0,4507880,0 ARIANE 5 DEB (SYLDA),1 44336U 19034D   24272.13520097  .00334270  00000-0  14064-1 0  9996,2 44336   5.8643  94.7776 5889587  91.6313 332.6138  4.27659897 54553,2019-034D,44336,16032.558,336.716,19096.938,211.909,0
